ENVISAT                 
1 27386U 02009A   25333.82509185  .00000145  00000+0  60728-4 0  9997
2 27386  98.3582 284.8944 0001208  81.8432 296.9950 14.38991503244811
IDEFIX & ARIANE 42P R/B 
1 27422U 02021B   25333.57738406  .00000322  00000+0  13907-3 0  9997
2 27422  98.5768 268.4404 0012735 119.1409 241.1051 14.30934696229702
AQUA                    
1 27424U 02022A   25333.82572109  .00001144  00000+0  23914-3 0  9996
2 27424  98.4019 294.4966 0000660 100.9344 345.8487 14.61758990254140
CZ-4B R/B               
1 27432U 02024C   25333.71090528  .00000052  00000+0  50164-4 0  9990
2 27432  98.9020  22.5269 0049305 307.6271 163.0943 14.14523485215103
MIDORI II (ADEOS-II)    
1 27597U 02056A   25333.83375578  .00000294  00000+0  13349-3 0  9992
2 27597  98.7617 286.7237 0000515  12.6057 347.5137 14.29191571196036
H-2A R/B                
1 27601U 02056E   25333.83813127  .00000321  00000+0  12674-3 0  9996
2 27601  98.3048 293.1102 0071474  98.9651 317.5007 14.33659906199805
CZ-4B R/B               
1 28059U 03049C   25333.52862762  .00000417  00000+0  10738-3 0  9997
2 28059  98.6781 319.5944 0048255 175.9592 184.2003 14.54890160172031
CZ-2C R/B               
1 28222U 04012C   25333.86831500  .00037181  00000+0  56601-3 0  9990
2 28222  97.7451  25.4376 0017364 320.4462  39.5523 15.54256274188724
SL-16 R/B               
1 28353U 04021B   25333.75168715 -.00000027  00000+0  10710-4 0  9996
2 28353  71.0020  82.2194 0005936 216.0424 144.0298 14.14582399108701
CZ-4B R/B               
1 28415U 04035C   25333.65373758  .00008387  00000+0  31387-3 0  9992
2 28415  97.3634   4.1747 0032522 325.9517  33.9635 15.27057108164638
CZ-2C R/B               
1 28480U 04046B   25333.77635931  .00000209  00000+0  92139-4 0  9991
2 28480  98.1978 249.9608 0140762  90.3307 271.4005 14.26931631 94251
ARIANE 5 R/B            
1 28499U 04049H   25333.51323354  .00000963  00000+0  11341-3 0  9991
2 28499  98.2517 133.3209 0083737 316.3793  43.0821 14.84964673130922
