CCSDS_OMM_VERS = 2.0
CREATION_DATE  = 
ORIGINATOR     = 

OBJECT_NAME    = ENVISAT
OBJECT_ID      = 2002-009A
CENTER_NAME    = EARTH
REF_FRAME      = TEME
TIME_SYSTEM    = UTC
MEAN_ELEMENT_THEORY = SGP/SGP4

EPOCH          = 2025-11-29T19:48:07.935840
MEAN_MOTION    = 14.38991503
ECCENTRICITY   = .0001208
INCLINATION    = 98.3582
RA_OF_ASC_NODE = 284.8944
ARG_OF_PERICENTER = 81.8432
MEAN_ANOMALY   = 296.9950

EPHEMERIS_TYPE = 0
CLASSIFICATION_TYPE = U
NORAD_CAT_ID   = 27386
ELEMENT_SET_NO = 999
REV_AT_EPOCH   = 24481
BSTAR          = .60728E-4
MEAN_MOTION_DOT = .145E-5
MEAN_MOTION_DDOT = 0

CCSDS_OMM_VERS = 2.0
CREATION_DATE  = 
ORIGINATOR     = 

OBJECT_NAME    = IDEFIX & ARIANE 42P R/B
OBJECT_ID      = 2002-021B
CENTER_NAME    = EARTH
REF_FRAME      = TEME
TIME_SYSTEM    = UTC
MEAN_ELEMENT_THEORY = SGP/SGP4

EPOCH          = 2025-11-29T13:51:25.982784
MEAN_MOTION    = 14.30934696
ECCENTRICITY   = .0012735
INCLINATION    = 98.5768
RA_OF_ASC_NODE = 268.4404
ARG_OF_PERICENTER = 119.1409
MEAN_ANOMALY   = 241.1051

EPHEMERIS_TYPE = 0
CLASSIFICATION_TYPE = U
NORAD_CAT_ID   = 27422
ELEMENT_SET_NO = 999
REV_AT_EPOCH   = 22970
BSTAR          = .13907E-3
MEAN_MOTION_DOT = .322E-5
MEAN_MOTION_DDOT = 0

CCSDS_OMM_VERS = 2.0
CREATION_DATE  = 
ORIGINATOR     = 

OBJECT_NAME    = AQUA
OBJECT_ID      = 2002-022A
CENTER_NAME    = EARTH
REF_FRAME      = TEME
TIME_SYSTEM    = UTC
MEAN_ELEMENT_THEORY = SGP/SGP4

EPOCH          = 2025-11-29T19:49:02.302176
MEAN_MOTION    = 14.61758990
ECCENTRICITY   = .000066
INCLINATION    = 98.4019
RA_OF_ASC_NODE = 294.4966
ARG_OF_PERICENTER = 100.9344
MEAN_ANOMALY   = 345.8487

EPHEMERIS_TYPE = 0
CLASSIFICATION_TYPE = U
NORAD_CAT_ID   = 27424
ELEMENT_SET_NO = 999
REV_AT_EPOCH   = 25414
BSTAR          = .23914E-3
MEAN_MOTION_DOT = .1144E-4
MEAN_MOTION_DDOT = 0

CCSDS_OMM_VERS = 2.0
CREATION_DATE  = 
ORIGINATOR     = 

OBJECT_NAME    = CZ-4B R/B
OBJECT_ID      = 2002-024C
CENTER_NAME    = EARTH
REF_FRAME      = TEME
TIME_SYSTEM    = UTC
MEAN_ELEMENT_THEORY = SGP/SGP4

EPOCH          = 2025-11-29T17:03:42.216192
MEAN_MOTION    = 14.14523485
ECCENTRICITY   = .0049305
INCLINATION    = 98.9020
RA_OF_ASC_NODE = 22.5269
ARG_OF_PERICENTER = 307.6271
MEAN_ANOMALY   = 163.0943

EPHEMERIS_TYPE = 0
CLASSIFICATION_TYPE = U
NORAD_CAT_ID   = 27432
ELEMENT_SET_NO = 999
REV_AT_EPOCH   = 21510
BSTAR          = .50164E-4
MEAN_MOTION_DOT = .52E-6
MEAN_MOTION_DDOT = 0

CCSDS_OMM_VERS = 2.0
CREATION_DATE  = 
ORIGINATOR     = 

OBJECT_NAME    = MIDORI II (ADEOS-II)
OBJECT_ID      = 2002-056A
CENTER_NAME    = EARTH
REF_FRAME      = TEME
TIME_SYSTEM    = UTC
MEAN_ELEMENT_THEORY = SGP/SGP4

EPOCH          = 2025-11-29T20:00:36.499392
MEAN_MOTION    = 14.29191571
ECCENTRICITY   = .0000515
INCLINATION    = 98.7617
RA_OF_ASC_NODE = 286.7237
ARG_OF_PERICENTER = 12.6057
MEAN_ANOMALY   = 347.5137

EPHEMERIS_TYPE = 0
CLASSIFICATION_TYPE = U
NORAD_CAT_ID   = 27597
ELEMENT_SET_NO = 999
REV_AT_EPOCH   = 19603
BSTAR          = .13349E-3
MEAN_MOTION_DOT = .294E-5
MEAN_MOTION_DDOT = 0

CCSDS_OMM_VERS = 2.0
CREATION_DATE  = 
ORIGINATOR     = 

OBJECT_NAME    = H-2A R/B
OBJECT_ID      = 2002-056E
CENTER_NAME    = EARTH
REF_FRAME      = TEME
TIME_SYSTEM    = UTC
MEAN_ELEMENT_THEORY = SGP/SGP4

EPOCH          = 2025-11-29T20:06:54.541728
MEAN_MOTION    = 14.33659906
ECCENTRICITY   = .0071474
INCLINATION    = 98.3048
RA_OF_ASC_NODE = 293.1102
ARG_OF_PERICENTER = 98.9651
MEAN_ANOMALY   = 317.5007

EPHEMERIS_TYPE = 0
CLASSIFICATION_TYPE = U
NORAD_CAT_ID   = 27601
ELEMENT_SET_NO = 999
REV_AT_EPOCH   = 19980
BSTAR          = .12674E-3
MEAN_MOTION_DOT = .321E-5
MEAN_MOTION_DDOT = 0

CCSDS_OMM_VERS = 2.0
CREATION_DATE  = 
ORIGINATOR     = 

OBJECT_NAME    = CZ-4B R/B
OBJECT_ID      = 2003-049C
CENTER_NAME    = EARTH
REF_FRAME      = TEME
TIME_SYSTEM    = UTC
MEAN_ELEMENT_THEORY = SGP/SGP4

EPOCH          = 2025-11-29T12:41:13.426368
MEAN_MOTION    = 14.54890160
ECCENTRICITY   = .0048255
INCLINATION    = 98.6781
RA_OF_ASC_NODE = 319.5944
ARG_OF_PERICENTER = 175.9592
MEAN_ANOMALY   = 184.2003

EPHEMERIS_TYPE = 0
CLASSIFICATION_TYPE = U
NORAD_CAT_ID   = 28059
ELEMENT_SET_NO = 999
REV_AT_EPOCH   = 17203
BSTAR          = .10738E-3
MEAN_MOTION_DOT = .417E-5
MEAN_MOTION_DDOT = 0

CCSDS_OMM_VERS = 2.0
CREATION_DATE  = 
ORIGINATOR     = 

OBJECT_NAME    = CZ-2C R/B
OBJECT_ID      = 2004-012C
CENTER_NAME    = EARTH
REF_FRAME      = TEME
TIME_SYSTEM    = UTC
MEAN_ELEMENT_THEORY = SGP/SGP4

EPOCH          = 2025-11-29T20:50:22.416000
MEAN_MOTION    = 15.54256274
ECCENTRICITY   = .0017364
INCLINATION    = 97.7451
RA_OF_ASC_NODE = 25.4376
ARG_OF_PERICENTER = 320.4462
MEAN_ANOMALY   = 39.5523

EPHEMERIS_TYPE = 0
CLASSIFICATION_TYPE = U
NORAD_CAT_ID   = 28222
ELEMENT_SET_NO = 999
REV_AT_EPOCH   = 18872
BSTAR          = .56601E-3
MEAN_MOTION_DOT = .37181E-3
MEAN_MOTION_DDOT = 0

CCSDS_OMM_VERS = 2.0
CREATION_DATE  = 
ORIGINATOR     = 

OBJECT_NAME    = SL-16 R/B
OBJECT_ID      = 2004-021B
CENTER_NAME    = EARTH
REF_FRAME      = TEME
TIME_SYSTEM    = UTC
MEAN_ELEMENT_THEORY = SGP/SGP4

EPOCH          = 2025-11-29T18:02:25.769760
MEAN_MOTION    = 14.14582399
ECCENTRICITY   = .0005936
INCLINATION    = 71.0020
RA_OF_ASC_NODE = 82.2194
ARG_OF_PERICENTER = 216.0424
MEAN_ANOMALY   = 144.0298

EPHEMERIS_TYPE = 0
CLASSIFICATION_TYPE = U
NORAD_CAT_ID   = 28353
ELEMENT_SET_NO = 999
REV_AT_EPOCH   = 10870
BSTAR          = .1071E-4
MEAN_MOTION_DOT = -.27E-6
MEAN_MOTION_DDOT = 0

CCSDS_OMM_VERS = 2.0
CREATION_DATE  = 
ORIGINATOR     = 

OBJECT_NAME    = CZ-4B R/B
OBJECT_ID      = 2004-035C
CENTER_NAME    = EARTH
REF_FRAME      = TEME
TIME_SYSTEM    = UTC
MEAN_ELEMENT_THEORY = SGP/SGP4

EPOCH          = 2025-11-29T15:41:22.926912
MEAN_MOTION    = 15.27057108
ECCENTRICITY   = .0032522
INCLINATION    = 97.3634
RA_OF_ASC_NODE = 4.1747
ARG_OF_PERICENTER = 325.9517
MEAN_ANOMALY   = 33.9635

EPHEMERIS_TYPE = 0
CLASSIFICATION_TYPE = U
NORAD_CAT_ID   = 28415
ELEMENT_SET_NO = 999
REV_AT_EPOCH   = 16463
BSTAR          = .31387E-3
MEAN_MOTION_DOT = .8387E-4
MEAN_MOTION_DDOT = 0

CCSDS_OMM_VERS = 2.0
CREATION_DATE  = 
ORIGINATOR     = 

OBJECT_NAME    = CZ-2C R/B
OBJECT_ID      = 2004-046B
CENTER_NAME    = EARTH
REF_FRAME      = TEME
TIME_SYSTEM    = UTC
MEAN_ELEMENT_THEORY = SGP/SGP4

EPOCH          = 2025-11-29T18:37:57.444384
MEAN_MOTION    = 14.26931631
ECCENTRICITY   = .0140762
INCLINATION    = 98.1978
RA_OF_ASC_NODE = 249.9608
ARG_OF_PERICENTER = 90.3307
MEAN_ANOMALY   = 271.4005

EPHEMERIS_TYPE = 0
CLASSIFICATION_TYPE = U
NORAD_CAT_ID   = 28480
ELEMENT_SET_NO = 999
REV_AT_EPOCH   = 9425
BSTAR          = .92139E-4
MEAN_MOTION_DOT = .209E-5
MEAN_MOTION_DDOT = 0

CCSDS_OMM_VERS = 2.0
CREATION_DATE  = 
ORIGINATOR     = 

OBJECT_NAME    = ARIANE 5 R/B
OBJECT_ID      = 2004-049H
CENTER_NAME    = EARTH
REF_FRAME      = TEME
TIME_SYSTEM    = UTC
MEAN_ELEMENT_THEORY = SGP/SGP4

EPOCH          = 2025-11-29T12:19:03.377856
MEAN_MOTION    = 14.84964673
ECCENTRICITY   = .0083737
INCLINATION    = 98.2517
RA_OF_ASC_NODE = 133.3209
ARG_OF_PERICENTER = 316.3793
MEAN_ANOMALY   = 43.0821

EPHEMERIS_TYPE = 0
CLASSIFICATION_TYPE = U
NORAD_CAT_ID   = 28499
ELEMENT_SET_NO = 999
REV_AT_EPOCH   = 13092
BSTAR          = .11341E-3
MEAN_MOTION_DOT = .963E-5
MEAN_MOTION_DDOT = 0

